H1 CPF  1  DGF 2022 05 11 10  6311 larets     NONE      
H2   304206 5557    27944 2022 05 11 00 00 00 2022 05 18 00 00 00    30 1 1  0 0 0
H5  0.0650
H9
10 0 59715  79200.000000  0       3444137.230       6121285.145        660768.312
10 0 59715  79230.000000  0       3473421.398       6076173.541        882743.496
10 0 59715  79260.000000  0       3498957.656       6024754.833       1103813.213
10 0 59715  79290.000000  0       3520692.221       5967097.314       1323750.606
10 0 59715  79320.000000  0       3538575.543       5903275.953       1542329.954
10 0 59715  79350.000000  0       3552562.381       5833372.299       1759326.914
10 0 59715  79380.000000  0       3562611.883       5757474.378       1974518.758
10 0 59715  79410.000000  0       3568687.652       5675676.583       2187684.612
10 0 59715  79440.000000  0       3570757.815       5588079.559       2398605.698
10 0 59715  79470.000000  0       3568795.081       5494790.069       2607065.561
10 0 59715  79500.000000  0       3562776.795       5395920.860       2812850.309
10 0 59715  79530.000000  0       3552684.987       5291590.521       3015748.834
10 0 59715  79560.000000  0       3538506.413       5181923.329       3215553.032
10 0 59715  79590.000000  0       3520232.592       5067049.099       3412058.022
10 0 59715  79620.000000  0       3497859.835       4947103.025       3605062.355
10 0 59715  79650.000000  0       3471389.278       4822225.520       3794368.231
10 0 59715  79680.000000  0       3440826.899       4692562.048       3979781.710
10 0 59715  79710.000000  0       3406183.524       4558262.945       4161112.922
10 0 59715  79740.000000  0       3367474.836       4419483.232       4338176.263
10 0 59715  79770.000000  0       3324721.367       4276382.430       4510790.592
10 0 59715  79800.000000  0       3277948.488       4129124.359       4678779.412
10 0 59715  79830.000000  0       3227186.398       3977876.946       4841971.045
10 0 59715  79860.000000  0       3172470.104       3822812.025       5000198.807
10 0 59715  79890.000000  0       3113839.400       3664105.136       5153301.177
10 0 59715  79920.000000  0       3051338.838       3501935.318       5301121.964
10 0 59715  79950.000000  0       2985017.693       3336484.894       5443510.455
10 0 59715  79980.000000  0       2914929.921       3167939.264       5580321.563
10 0 59715  80010.000000  0       2841134.118       2996486.694       5711415.977
10 0 59715  80040.000000  0       2763693.470       2822318.101       5836660.297
10 0 59715  80070.000000  0       2682675.695       2645626.832       5955927.170
10 0 59715  80100.000000  0       2598152.981       2466608.443       6069095.421
10 0 59715  80130.000000  0       2510201.915       2285460.475       6176050.164
10 0 59715  80160.000000  0       2418903.412       2102382.228       6276682.919
10 0 59715  80190.000000  0       2324342.635       1917574.540       6370891.709
10 0 59715  80220.000000  0       2226608.910       1731239.559       6458581.164
10 0 59715  80250.000000  0       2125795.641       1543580.520       6539662.604
10 0 59715  80280.000000  0       2022000.212       1354801.521       6614054.125
10 0 59715  80310.000000  0       1915323.896       1165107.296       6681680.674
10 0 59715  80340.000000  0       1805871.745        974702.995       6742474.119
10 0 59715  80370.000000  0       1693752.487        783793.961       6796373.307
10 0 59715  80400.000000  0       1579078.418        592585.511       6843324.127
10 0 59715  80430.000000  0       1461965.286        401282.714       6883279.555
10 0 59715  80460.000000  0       1342532.169        210090.172       6916199.705
10 0 59715  80490.000000  0       1220901.360         19211.796       6942051.866
10 0 59715  80520.000000  0       1097198.230       -171149.413       6960810.531
10 0 59715  80550.000000  0        971551.100       -360791.584       6972457.414
10 0 59715  80580.000000  0        844091.109       -549514.193       6976981.464
10 0 59715  80610.000000  0        714952.072       -737118.268       6974378.874
10 0 59715  80640.000000  0        584270.340       -923406.600       6964653.080
10 0 59715  80670.000000  0        452184.652      -1108183.956       6947814.757
10 0 59715  80700.000000  0        318835.988      -1291257.279       6923881.805
10 0 59715  80730.000000  0        184367.417      -1472435.892       6892879.325
10 0 59715  80760.000000  0         48923.943      -1651531.698       6854839.592
10 0 59715  80790.000000  0        -87347.653      -1828359.373       6809802.026
10 0 59715  80820.000000  0       -224298.974      -2002736.562       6757813.142
10 0 59715  80850.000000  0       -361780.166      -2174484.065       6698926.507
10 0 59715  80880.000000  0       -499640.086      -2343426.021       6633202.676
10 0 59715  80910.000000  0       -637726.461      -2509390.093       6560709.135
10 0 59715  80940.000000  0       -775886.056      -2672207.631       6481520.228
10 0 59715  80970.000000  0       -913964.841      -2831713.851       6395717.082
10 0 59715  81000.000000  0      -1051808.161      -2987748.001       6303387.535
10 0 59715  81030.000000  0      -1189260.906      -3140153.519       6204626.042
10 0 59715  81060.000000  0      -1326167.688      -3288778.201       6099533.591
10 0 59715  81090.000000  0      -1462373.014      -3433474.345       5988217.599
10 0 59715  81120.000000  0      -1597721.468      -3574098.908       5870791.807
10 0 59715  81150.000000  0      -1732057.881      -3710513.644       5747376.172
10 0 59715  81180.000000  0      -1865227.517      -3842585.251       5618096.746
10 0 59715  81210.000000  0      -1997076.250      -3970185.496       5483085.552
10 0 59715  81240.000000  0      -2127450.744      -4093191.354       5342480.454
10 0 59715  81270.000000  0      -2256198.636      -4211485.124       5196425.018
10 0 59715  81300.000000  0      -2383168.714      -4324954.549       5045068.367
10 0 59715  81330.000000  0      -2508211.095      -4433492.924       4888565.026
10 0 59715  81360.000000  0      -2631177.409      -4536999.197       4727074.773
10 0 59715  81390.000000  0      -2751920.966      -4635378.070       4560762.472
10 0 59715  81420.000000  0      -2870296.943      -4728540.091       4389797.908
10 0 59715  81450.000000  0      -2986162.550      -4816401.736       4214355.610
10 0 59715  81480.000000  0      -3099377.207      -4898885.491       4034614.675
10 0 59715  81510.000000  0      -3209802.713      -4975919.913       3850758.580
10 0 59715  81540.000000  0      -3317303.411      -5047439.697       3662974.997
10 0 59715  81570.000000  0      -3421746.352      -5113385.735       3471455.601
10 0 59715  81600.000000  0      -3523001.463      -5173705.160       3276395.876
10 0 59715  81630.000000  0      -3620941.706      -5228351.395       3077994.915
10 0 59715  81660.000000  0      -3715443.234      -5277284.188       2876455.211
10 0 59715  81690.000000  0      -3806385.551      -5320469.636       2671982.450
10 0 59715  81720.000000  0      -3893651.661      -5357880.212       2464785.302
10 0 59715  81750.000000  0      -3977128.215      -5389494.773       2255075.199
10 0 59715  81780.000000  0      -4056705.660      -5415298.571       2043066.121
10 0 59715  81810.000000  0      -4132278.376      -5435283.248       1828974.368
10 0 59715  81840.000000  0      -4203744.814      -5449446.827       1613018.341
10 0 59715  81870.000000  0      -4271007.626      -5457793.696       1395418.313
10 0 59715  81900.000000  0      -4333973.791      -5460334.587       1176396.199
10 0 59715  81930.000000  0      -4392554.743      -5457086.540        956175.327
10 0 59715  81960.000000  0      -4446666.479      -5448072.868        734980.207
10 0 59715  81990.000000  0      -4496229.684      -5433323.115        513036.293
10 0 59715  82020.000000  0      -4541169.827      -5412872.997        290569.755
10 0 59715  82050.000000  0      -4581417.270      -5386764.346         67807.235
10 0 59715  82080.000000  0      -4616907.364      -5355045.044       -155024.381
10 0 59715  82110.000000  0      -4647580.533      -5317768.950       -377698.209
10 0 59715  82140.000000  0      -4673382.367      -5274995.814       -599987.597
10 0 59715  82170.000000  0      -4694263.690      -5226791.194       -821666.361
10 0 59715  82200.000000  0      -4710180.641      -5173226.360      -1042509.024
10 0 59715  82230.000000  0      -4721094.733      -5114378.189      -1262291.048
10 0 59715  82260.000000  0      -4726972.913      -5050329.065      -1480789.064
10 0 59715  82290.000000  0      -4727787.617      -4981166.758      -1697781.102
10 0 59715  82320.000000  0      -4723516.813      -4906984.310      -1913046.825
10 0 59715  82350.000000  0      -4714144.046      -4827879.906      -2126367.746
10 0 59715  82380.000000  0      -4699658.463      -4743956.744      -2337527.456
10 0 59715  82410.000000  0      -4680054.846      -4655322.902      -2546311.844
10 0 59715  82440.000000  0      -4655333.629      -4562091.196      -2752509.309
10 0 59715  82470.000000  0      -4625500.914      -4464379.034      -2955910.978
10 0 59715  82500.000000  0      -4590568.477      -4362308.271      -3156310.913
10 0 59715  82530.000000  0      -4550553.767      -4256005.050      -3353506.321
10 0 59715  82560.000000  0      -4505479.904      -4145599.647      -3547297.753
10 0 59715  82590.000000  0      -4455375.663      -4031226.311      -3737489.300
10 0 59715  82620.000000  0      -4400275.460      -3913023.097      -3923888.793
10 0 59715  82650.000000  0      -4340219.326      -3791131.700      -4106307.989
10 0 59715  82680.000000  0      -4275252.876      -3665697.280      -4284562.757
10 0 59715  82710.000000  0      -4205427.273      -3536868.289      -4458473.260
10 0 59715  82740.000000  0      -4130799.183      -3404796.292      -4627864.128
10 0 59715  82770.000000  0      -4051430.727      -3269635.789      -4792564.630
99
